[{"OBJECT_NAME":"STARLINK-1260","OBJECT_ID":"2020-019AW","EPOCH":"2026-03-09T10:28:29.871840","MEAN_MOTION":15.30197736,"ECCENTRICITY":0.00018207,"INCLINATION":53.1614,"RA_OF_ASC_NODE":130.4178,"ARG_OF_PERICENTER":93.3089,"MEAN_ANOMALY":266.812,"EPHEMERIS_TYPE":0,"CLASSIFICATION_TYPE":"U","NORAD_CAT_ID":45404,"ELEMENT_SET_NO":999,"REV_AT_EPOCH":32993,"BSTAR":0.00014152412,"MEAN_MOTION_DOT":3.834e-5,"MEAN_MOTION_DDOT":0},{"OBJECT_NAME":"OBJECT BD","OBJECT_ID":"2025-313BD","EPOCH":"2026-03-09T15:06:44.992224","MEAN_MOTION":15.3000236,"ECCENTRICITY":0.00072867,"INCLINATION":97.397,"RA_OF_ASC_NODE":145.285,"ARG_OF_PERICENTER":333.4514,"MEAN_ANOMALY":26.6352,"EPHEMERIS_TYPE":0,"CLASSIFICATION_TYPE":"U","NORAD_CAT_ID":67299,"ELEMENT_SET_NO":999,"REV_AT_EPOCH":1083,"BSTAR":0.0027633805,"MEAN_MOTION_DOT":0.0008101,"MEAN_MOTION_DDOT":0}]
